IRIDIUM 63              
1 25286U 98021B   25344.81632410  .00000577  00000+0  18923-3 0  9990
2 25286  86.3984   8.0217 0002413  89.6726 270.4748 14.36733340449204
IRIDIUM 69              
1 25319U 98026A   25344.84031768  .00000783  00000+0  23669-3 0  9996
2 25319  86.3980  20.7418 0003830 128.4095 231.7449 14.41214758448509
IRIDIUM 71              
1 25320U 98026B   25344.82722325  .00000442  00000+0  13063-3 0  9991
2 25320  86.3979  15.4202 0001742 155.7415 204.3867 14.41316281449033
IRIDIUM 73              
1 25344U 98032C   25344.91814087  .00001051  00000+0  25540-3 0  9991
2 25344  86.4403 331.7632 0002909  95.4379 264.7159 14.51985867456202
IRIDIUM 82              
1 25467U 98051A   25344.83613016  .00056917  00000+0  10649-2 0  9992
2 25467  86.3613  22.0666 0061043 342.7886  17.1299 15.46405894451103
